NORAD_CAT_ID,OBJECT_NAME,OBJECT_TYPE,EPOCH,MEAN_MOTION,ECCENTRICITY,INCLINATION,RA_OF_ASC_NODE,ARG_OF_PERICENTER,MEAN_ANOMALY,BSTAR,MEAN_MOTION_DOT,MEAN_MOTION_DDOT,TLE_LINE0,TLE_LINE1,TLE_LINE2,SEMIMAJOR_AXIS,PERIOD,APOGEE,PERIGEE,DECAYED
52488.0,STARLINK-3892,PAYLOAD,2024-07-16 10:02:46,15.08835083,0.000137,53.2166,238.3368,104.3491,255.7653,0.00011583,1.556e-05,0.0,0 STARLINK-3892,1 52488U 22049AP  24198.41859763  .00001556  00000-0  11583-3 0  9999,2 52488  53.2166 238.3368 0001370 104.3491 255.7653 15.08835083121646,6917.895,95.438,540.708,538.813,0.0
52488.0,STARLINK-3892,PAYLOAD,2024-07-17 11:28:57,15.08840723,0.0001274,53.2157,233.5778,95.0411,265.0726,9.7475e-05,1.264e-05,0.0,0 STARLINK-3892,1 52488U 22049AP  24199.47844014  .00001264  00000-0  97475-4 0  9990,2 52488  53.2157 233.5778 0001274  95.0411 265.0726 15.08840723121809,6917.878,95.438,540.625,538.862,0.0
52488.0,STARLINK-3892,PAYLOAD,2024-07-18 11:19:43,15.08849045,0.0001283,53.2145,229.1167,89.0418,271.0721,0.00021871,3.195e-05,0.0,0 STARLINK-3892,1 52488U 22049AP  24200.47203576  .00003195  00000-0  21871-3 0  9996,2 52488  53.2145 229.1167 0001283  89.0418 271.0721 15.08849045121795,6917.853,95.437,540.605,538.83,0.0
52488.0,STARLINK-3892,PAYLOAD,2024-07-19 07:59:44,15.08841822,0.0001247,53.2146,225.2483,101.7536,258.3596,8.1278e-05,1.006e-05,0.0,0 STARLINK-3892,1 52488U 22049AP  24201.33315929  .00001006  00000-0  81278-4 0  9995,2 52488  53.2146 225.2483 0001247 101.7536 258.3596 15.08841822122083,6917.875,95.437,540.602,538.877,0.0
52488.0,STARLINK-3892,PAYLOAD,2024-07-20 11:01:18,15.08845575,0.0001229,53.2154,220.1939,95.2387,264.8745,1.084e-05,-1.15e-06,0.0,0 STARLINK-3892,1 52488U 22049AP  24202.45923799 -.00000115  00000-0  10840-4 0  9997,2 52488  53.2154 220.1939 0001229  95.2387 264.8745 15.08845575122259,6917.863,95.437,540.579,538.878,0.0
52488.0,STARLINK-3892,PAYLOAD,2024-07-21 04:30:32,15.08838811,0.0001264,53.2151,216.9226,97.9463,262.1673,7.4581e-05,8.99e-06,0.0,0 STARLINK-3892,1 52488U 22049AP  24203.18788077  .00000899  00000-0  74581-4 0  9996,2 52488  53.2151 216.9226 0001264  97.9463 262.1673 15.08838811122369,6917.884,95.438,540.623,538.875,0.0
52488.0,STARLINK-3892,PAYLOAD,2024-07-21 07:41:19,15.08840751,0.000131,53.2153,216.328,98.7414,261.3726,8.5512e-05,1.073e-05,0.0,0 STARLINK-3892,1 52488U 22049AP  24203.32035925  .00001073  00000-0  85512-4 0  9990,2 52488  53.2153 216.3280 0001310  98.7414 261.3726 15.08840751122223,6917.878,95.438,540.649,538.837,0.0
52488.0,STARLINK-3892,PAYLOAD,2024-07-22 07:32:06,15.08837558,0.0001376,53.2157,211.8672,98.4208,261.6941,4.9093e-05,4.93e-06,0.0,0 STARLINK-3892,1 52488U 22049AP  24204.31396389  .00000493  00000-0  49093-4 0  9993,2 52488  53.2157 211.8672 0001376  98.4208 261.6941 15.08837558122539,6917.888,95.438,540.705,538.801,0.0
52488.0,STARLINK-3892,PAYLOAD,2024-07-23 01:01:20,15.08841413,0.0001395,53.2159,208.5943,98.5324,261.5826,8.8874e-05,1.127e-05,0.0,0 STARLINK-3892,1 52488U 22049AP  24205.04260087  .00001127  00000-0  88874-4 0  9994,2 52488  53.2159 208.5943 0001395  98.5324 261.5826 15.08841413122486,6917.876,95.437,540.706,538.776,0.0
52488.0,STARLINK-3892,PAYLOAD,2024-07-24 05:38:17,15.08832591,0.0001472,53.216,203.2473,100.1042,260.0117,4.0329e-05,3.54e-06,0.0,0 STARLINK-3892,1 52488U 22049AP  24206.23493053  .00000354  00000-0  40329-4 0  9991,2 52488  53.2160 203.2473 0001472 100.1042 260.0117 15.08832591122823,6917.903,95.438,540.786,538.75,0.0
52488.0,STARLINK-3892,PAYLOAD,2024-07-25 05:29:04,15.08844879,0.000153,53.216,198.7874,101.7238,258.3926,6.1429e-05,6.9e-06,0.0,0 STARLINK-3892,1 52488U 22049AP  24207.22852324  .00000690  00000-0  61429-4 0  9998,2 52488  53.2160 198.7874 0001530 101.7238 258.3926 15.08844879122971,6917.865,95.437,540.789,538.672,0.0
52488.0,STARLINK-3892,PAYLOAD,2024-07-25 22:58:19,15.0883651,0.0001548,53.2159,195.5157,86.5275,273.5894,6.8974e-05,8.1e-06,0.0,0 STARLINK-3892,1 52488U 22049AP  24207.95716900  .00000810  00000-0  68974-4 0  9993,2 52488  53.2159 195.5157 0001548  86.5275 273.5894 15.08836510122929,6917.891,95.438,540.827,538.685,0.0
52488.0,STARLINK-3892,PAYLOAD,2024-07-26 05:19:52,15.08835422,0.0001586,53.2158,194.3235,84.0058,276.1115,5.9007e-05,6.51e-06,0.0,0 STARLINK-3892,1 52488U 22049AP  24208.22213155  .00000651  00000-0  59007-4 0  9998,2 52488  53.2158 194.3235 0001586  84.0058 276.1115 15.08835422123125,6917.894,95.438,540.857,538.662,0.0
52488.0,STARLINK-3892,PAYLOAD,2024-07-26 06:55:15,15.08836781,0.0001594,53.2159,194.026,83.6113,276.5061,6.9166e-05,8.13e-06,0.0,0 STARLINK-3892,1 52488U 22049AP  24208.28837062  .00000813  00000-0  69166-4 0  9990,2 52488  53.2159 194.0260 0001594  83.6113 276.5061 15.08836781122972,6917.89,95.438,540.858,538.653,0.0
52488.0,STARLINK-3892,PAYLOAD,2024-07-26 22:49:06,15.08844448,0.0001519,53.2152,191.0515,89.8518,270.2649,6.9949e-05,8.26e-06,0.0,0 STARLINK-3892,1 52488U 22049AP  24208.95076491  .00000826  00000-0  69949-4 0  9998,2 52488  53.2152 191.0515 0001519  89.8518 270.2649 15.08844448123073,6917.867,95.437,540.783,538.681,0.0
52488.0,STARLINK-3892,PAYLOAD,2024-07-27 05:10:38,15.08847849,0.0001527,53.2152,189.8624,88.9257,271.1911,9.4505e-05,1.217e-05,0.0,0 STARLINK-3892,1 52488U 22049AP  24209.21572121  .00001217  00000-0  94505-4 0  9990,2 52488  53.2152 189.8624 0001527  88.9257 271.1911 15.08847849123270,6917.856,95.437,540.778,538.665,0.0
52488.0,STARLINK-3892,PAYLOAD,2024-07-28 05:01:25,15.08838926,0.0001363,53.2144,185.4006,93.7515,266.3633,4.9642e-05,5.02e-06,0.0,0 STARLINK-3892,1 52488U 22049AP  24210.20932775  .00000502  00000-0  49642-4 0  9994,2 52488  53.2144 185.4006 0001363  93.7515 266.3633 15.08838926123426,6917.884,95.438,540.692,538.806,0.0
52488.0,STARLINK-3892,PAYLOAD,2024-07-29 04:52:13,15.08838448,0.0001537,53.216,180.9453,98.5802,261.5364,7.3338e-06,-1.71e-06,0.0,0 STARLINK-3892,1 52488U 22049AP  24211.20293086 -.00000171  00000-0  73338-5 0  9993,2 52488  53.2160 180.9453 0001537  98.5802 261.5364 15.08838448123411,6917.885,95.438,540.813,538.687,0.0
52488.0,STARLINK-3892,PAYLOAD,2024-07-29 22:21:28,15.0883161,0.0001516,53.2163,177.6741,98.5032,261.6132,3.4234e-05,2.57e-06,0.0,0 STARLINK-3892,1 52488U 22049AP  24211.93157676  .00000257  00000-0  34234-4 0  9992,2 52488  53.2163 177.6741 0001516  98.5032 261.6132 15.08831610123529,6917.906,95.438,540.82,538.722,0.0
52488.0,STARLINK-3892,PAYLOAD,2024-07-30 04:43:00,15.08833896,0.0001471,53.2165,176.4842,98.1089,262.007,4.7586e-05,4.69e-06,0.0,0 STARLINK-3892,1 52488U 22049AP  24212.19653607  .00000469  00000-0  47586-4 0  9995,2 52488  53.2165 176.4842 0001471  98.1089 262.0070 15.08833896123724,6917.899,95.438,540.782,538.746,0.0
52488.0,STARLINK-3892,PAYLOAD,2024-07-30 14:15:19,15.08838792,0.0001454,53.2165,174.6996,97.6037,262.512,9.1846e-05,1.174e-05,0.0,0 STARLINK-3892,1 52488U 22049AP  24212.59397290  .00001174  00000-0  91846-4 0  9994,2 52488  53.2165 174.6996 0001454  97.6037 262.5120 15.08838792123622,6917.884,95.438,540.755,538.743,0.0
52488.0,STARLINK-3892,PAYLOAD,2024-07-31 14:06:06,15.08837574,0.0001296,53.2157,170.2393,101.142,258.9718,7.1328e-05,8.47e-06,0.0,0 STARLINK-3892,1 52488U 22049AP  24213.58757410  .00000847  00000-0  71328-4 0  9997,2 52488  53.2157 170.2393 0001296 101.1420 258.9718 15.08837574123772,6917.888,95.438,540.649,538.856,0.0
52488.0,STARLINK-3892,PAYLOAD,2024-08-01 04:24:34,15.08838062,0.0001496,53.2173,167.5634,100.1259,259.9902,5.5834e-05,6.01e-06,0.0,0 STARLINK-3892,1 52488U 22049AP  24214.18373703  .00000601  00000-0  55834-4 0  9995,2 52488  53.2173 167.5634 0001496 100.1259 259.9902 15.08838062123867,6917.886,95.438,540.786,538.716,0.0
52488.0,STARLINK-3892,PAYLOAD,2024-08-01 20:18:25,15.08847399,0.0001485,53.2171,164.5899,101.7199,258.396,4.2767e-05,3.93e-06,0.0,0 STARLINK-3892,1 52488U 22049AP  24214.84613041  .00000393  00000-0  42767-4 0  9999,2 52488  53.2171 164.5899 0001485 101.7199 258.3960 15.08847399124123,6917.858,95.437,540.75,538.695,0.0
52488.0,STARLINK-3892,PAYLOAD,2024-08-02 13:47:40,15.08838175,0.0001437,53.2171,161.3196,90.1408,269.9749,4.1958e-05,3.8e-06,0.0,0 STARLINK-3892,1 52488U 22049AP  24215.57477757  .00000380  00000-0  41958-4 0  9999,2 52488  53.2171 161.3196 0001437  90.1408 269.9749 15.08838175124078,6917.886,95.438,540.745,538.757,0.0
52488.0,STARLINK-3892,PAYLOAD,2024-08-03 02:30:46,15.08834002,0.0001545,53.2177,158.9382,88.0197,272.0972,-3.61e-06,-3.45e-06,0.0,0 STARLINK-3892,1 52488U 22049AP  24216.10470411 -.00000345  00000-0 -36100-5 0  9996,2 52488  53.2177 158.9382 0001545  88.0197 272.0972 15.08834002124319,6917.899,95.438,540.833,538.695,0.0
52488.0,STARLINK-3892,PAYLOAD,2024-08-03 13:38:28,15.08835991,0.0001471,53.216,156.8549,95.8699,264.2461,2.3051e-05,7.9e-07,0.0,0 STARLINK-3892,1 52488U 22049AP  24216.56838255  .00000079  00000-0  23051-4 0  9992,2 52488  53.2160 156.8549 0001471  95.8699 264.2461 15.08835991124228,6917.893,95.438,540.775,538.74,0.0
52488.0,STARLINK-3892,PAYLOAD,2024-08-03 20:00:00,15.08843,0.0001435,53.2167,155.6624,106.5004,253.6146,-1.1783e-05,-4.75e-06,0.0,0 STARLINK-3892,1 52488U 22049AP  24216.83333960 -.00000475  00000-0 -11783-4 0  9996,2 52488  53.2167 155.6624 0001435 106.5004 253.6146 15.08843000124262,6917.871,95.437,540.729,538.744,0.0
52488.0,STARLINK-3892,PAYLOAD,2024-08-04 02:21:32,15.08847545,0.0001127,53.2157,154.4728,107.7086,252.4029,3.3357e-05,2.43e-06,0.0,0 STARLINK-3892,1 52488U 22049AP  24217.09829328  .00000243  00000-0  33357-4 0  9995,2 52488  53.2157 154.4728 0001127 107.7086 252.4029 15.08847545124461,6917.857,95.437,540.502,538.943,0.0
52488.0,STARLINK-3892,PAYLOAD,2024-08-04 05:32:18,15.08855105,0.0001317,53.216,153.8775,107.9684,252.1452,9.2034e-05,1.178e-05,0.0,0 STARLINK-3892,1 52488U 22049AP  24217.23076690  .00001178  00000-0  92034-4 0  9992,2 52488  53.2160 153.8775 0001317 107.9684 252.1452 15.08855105124487,6917.834,95.437,540.61,538.788,0.0
